{
"type": "FeatureCollection",
"name": "karnali_79_settlements",
"crs": { "type": "name", "properties": { "name": "urn:ogc:def:crs:OGC:1.3:CRS84" } },
"features": [
{"type":"Feature","properties":{"settlement_id":"KAR-SET-001","display_name":"Radi Jyula","name":"राडी ज्यूला","name_en":"Radi Jyula","adm3_name":"Aathabisakot","adm3_pcode":"NP0652301","local_level_type":"urban municipality","adm2_name":"Rukum West","class":"village","selection_method":"named_locality_max_buildings","label_distance_m":null,"buildings_within_radius":671,"candidates_in_palika":3,"id":"6684f880-2564-4118-832d-a4f816b4e0e8","src_id":"n12373542472@1"},"geometry":{"type":"Point","coordinates":[82.3510373,28.7905993]}},
{"type":"Feature","properties":{"settlement_id":"KAR-SET-002","display_name":"Chaupha Bazar","name":"Chaupha Bazar","name_en":null,"adm3_name":"Chaurjahari","adm3_pcode":"NP0652302","local_level_type":"urban municipality","adm2_name":"Rukum West","class":"village","selection_method":"named_locality_max_buildings","label_distance_m":null,"buildings_within_radius":273,"candidates_in_palika":15,"id":"63052d0e-f52a-4991-ac2a-e8384e107e38","src_id":"n6582148412@3"},"geometry":{"type":"Point","coordinates":[82.2787063,28.6195065]}},
{"type":"Feature","properties":{"settlement_id":"KAR-SET-003","display_name":"Musikot","name":"मुसिकोट","name_en":"Musikot","adm3_name":"Musikot","adm3_pcode":"NP0652303","local_level_type":"urban municipality","adm2_name":"Rukum West","class":"town","selection_method":"named_locality_max_buildings","label_distance_m":null,"buildings_within_radius":922,"candidates_in_palika":5,"id":"8c81b32a-45d4-4a5a-9de5-30f1209e748a","src_id":"n3385201358@9"},"geometry":{"type":"Point","coordinates":[82.455626,28.6292298]}},
{"type":"Feature","properties":{"settlement_id":"KAR-SET-004","display_name":"Simli","name":"सिम्ली","name_en":"Simli","adm3_name":"Sanibheri","adm3_pcode":"NP0652401","local_level_type":"rural municipality","adm2_name":"Rukum West","class":"village","selection_method":"named_locality_max_buildings","label_distance_m":null,"buildings_within_radius":347,"candidates_in_palika":91,"id":"c449d993-2851-47aa-ab37-dfb2751325d2","src_id":"n11358338338@1"},"geometry":{"type":"Point","coordinates":[82.3531851,28.6553404]}},
{"type":"Feature","properties":{"settlement_id":"KAR-SET-005","display_name":"area near Taligaun","name":"तालिगाउँ","name_en":"Taligaun","adm3_name":"Banphikot","adm3_pcode":"NP0652402","local_level_type":"rural municipality","adm2_name":"Rukum West","class":"hamlet","selection_method":"densest_building_cluster_nearest_name","label_distance_m":1028.0,"buildings_within_radius":696,"candidates_in_palika":13,"id":"2b9a3de1-58d5-4f28-bae3-3a2b8e9f004c","src_id":"n11358352608@1"},"geometry":{"type":"Point","coordinates":[82.444536558564423,28.70753469515796]}},
{"type":"Feature","properties":{"settlement_id":"KAR-SET-006","display_name":"Simruth","name":"Simruth","name_en":null,"adm3_name":"Tribeni","adm3_pcode":"NP0652403","local_level_type":"rural municipality","adm2_name":"Rukum West","class":"village","selection_method":"named_locality_max_buildings","label_distance_m":null,"buildings_within_radius":267,"candidates_in_palika":2,"id":"3b986e40-1993-40eb-9cb2-2aa2d70a87d0","src_id":"n3385204942@2"},"geometry":{"type":"Point","coordinates":[82.4333649,28.5762391]}},
{"type":"Feature","properties":{"settlement_id":"KAR-SET-007","display_name":"Devsthal","name":"Devsthal","name_en":null,"adm3_name":"Banagad Kupinde","adm3_pcode":"NP0653301","local_level_type":"urban municipality","adm2_name":"Salyan","class":"village","selection_method":"named_locality_max_buildings","label_distance_m":null,"buildings_within_radius":227,"candidates_in_palika":27,"id":"5e859640-3b88-4e19-a838-89a26752d030","src_id":"n3385201355@1"},"geometry":{"type":"Point","coordinates":[82.028242,28.5140829]}},
{"type":"Feature","properties":{"settlement_id":"KAR-SET-008","display_name":"Tharmare","name":"Tharmare","name_en":null,"adm3_name":"Bagachour","adm3_pcode":"NP0653302","local_level_type":"urban municipality","adm2_name":"Salyan","class":"village","selection_method":"named_locality_max_buildings","label_distance_m":null,"buildings_within_radius":304,"candidates_in_palika":2,"id":"c1fd6495-01aa-4fa0-8ce6-a90d6b88b0d8","src_id":"n4618002059@2"},"geometry":{"type":"Point","coordinates":[82.2804823,28.450875]}},
{"type":"Feature","properties":{"settlement_id":"KAR-SET-009","display_name":"Salyan Khalanga","name":"सल्यान खलङ्गा","name_en":"Salyan Khalanga","adm3_name":"Sharada","adm3_pcode":"NP0653303","local_level_type":"urban municipality","adm2_name":"Salyan","class":"town","selection_method":"named_locality_max_buildings","label_distance_m":null,"buildings_within_radius":789,"candidates_in_palika":2,"id":"07c6ceac-7fe3-4eb9-9dc8-789481b3dd6b","src_id":"n3386117460@4"},"geometry":{"type":"Point","coordinates":[82.1616243,28.376621]}},
{"type":"Feature","properties":{"settlement_id":"KAR-SET-010","display_name":"Kumakh rural municipality office area","name":"Kumakh rural municipality office area","name_en":null,"adm3_name":"Kumakh","adm3_pcode":"NP0653401","local_level_type":"rural municipality","adm2_name":"Salyan","class":"village","selection_method":"named_locality_max_buildings","label_distance_m":null,"buildings_within_radius":309,"candidates_in_palika":26,"id":"6ced8267-5ea0-4e15-89b8-df95f3b67c72","src_id":"n6582148408@1"},"geometry":{"type":"Point","coordinates":[82.1987119,28.5722523]}},
{"type":"Feature","properties":{"settlement_id":"KAR-SET-011","display_name":"Pharulachaur","name":"फारुलाचौर","name_en":"Pharulachaur","adm3_name":"Darma","adm3_pcode":"NP0653402","local_level_type":"rural municipality","adm2_name":"Salyan","class":"hamlet","selection_method":"named_locality_max_buildings","label_distance_m":null,"buildings_within_radius":272,"candidates_in_palika":104,"id":"9dbee07c-6ad0-4ec6-a325-0e9aa18f53e8","src_id":"n10679914433@1"},"geometry":{"type":"Point","coordinates":[82.2925027,28.5636077]}},
{"type":"Feature","properties":{"settlement_id":"KAR-SET-012","display_name":"area near Gurudase gaun","name":"Gurudase gaun","name_en":null,"adm3_name":"Siddha Kumakh","adm3_pcode":"NP0653403","local_level_type":"rural municipality","adm2_name":"Salyan","class":"village","selection_method":"densest_building_cluster_nearest_name","label_distance_m":2850.0,"buildings_within_radius":268,"candidates_in_palika":1,"id":"4a3e9b2e-8d0c-42dc-a090-33f8ebc8d2f9","src_id":"n6582148398@1"},"geometry":{"type":"Point","coordinates":[82.157463424446803,28.495625616042446]}},
{"type":"Feature","properties":{"settlement_id":"KAR-SET-013","display_name":"area near Bijeneta","name":"Bijeneta","name_en":null,"adm3_name":"Kalimati","adm3_pcode":"NP0653404","local_level_type":"rural municipality","adm2_name":"Salyan","class":"hamlet","selection_method":"densest_building_cluster_nearest_name","label_distance_m":5472.0,"buildings_within_radius":393,"candidates_in_palika":3,"id":"3019a069-7800-47c3-bec2-18d2281cc22b","src_id":"n9619831206@1"},"geometry":{"type":"Point","coordinates":[82.049338102122618,28.286145113507498]}},
{"type":"Feature","properties":{"settlement_id":"KAR-SET-014","display_name":"area near Shankhamool","name":"शंखमूल","name_en":"Shankhamool","adm3_name":"Chhatreshwori","adm3_pcode":"NP0653405","local_level_type":"rural municipality","adm2_name":"Salyan","class":"village","selection_method":"densest_building_cluster_nearest_name","label_distance_m":2683.0,"buildings_within_radius":546,"candidates_in_palika":3,"id":"f9f4453d-5b0d-4336-8308-5814b95e4016","src_id":"n3040453311@4"},"geometry":{"type":"Point","coordinates":[82.228069396041747,28.330333818505448]}},
{"type":"Feature","properties":{"settlement_id":"KAR-SET-015","display_name":"Luham","name":"लुहाम","name_en":"Luham","adm3_name":"Tribeni","adm3_pcode":"NP0653406","local_level_type":"rural municipality","adm2_name":"Salyan","class":"town","selection_method":"named_locality_max_buildings","label_distance_m":null,"buildings_within_radius":363,"candidates_in_palika":2,"id":"99823c73-282c-4044-88a9-33488869f103","src_id":"n3386116339@2"},"geometry":{"type":"Point","coordinates":[82.2602194,28.2955487]}},
{"type":"Feature","properties":{"settlement_id":"KAR-SET-016","display_name":"Okharpata","name":"ओखरपाटा","name_en":"Okharpata","adm3_name":"Kapurkot","adm3_pcode":"NP0653407","local_level_type":"rural municipality","adm2_name":"Salyan","class":"hamlet","selection_method":"named_locality_max_buildings","label_distance_m":null,"buildings_within_radius":270,"candidates_in_palika":81,"id":"62a45997-f1b1-42c4-a66d-10f5fdd3c1a4","src_id":"n10928038511@1"},"geometry":{"type":"Point","coordinates":[82.3591348,28.2667112]}},
{"type":"Feature","properties":{"settlement_id":"KAR-SET-017","display_name":"area near Tallo Tanti","name":"Tallo Tanti","name_en":null,"adm3_name":"Panchapuri","adm3_pcode":"NP0659301","local_level_type":"urban municipality","adm2_name":"Surkhet","class":"hamlet","selection_method":"densest_building_cluster_nearest_name","label_distance_m":1372.0,"buildings_within_radius":753,"candidates_in_palika":35,"id":"f09fe0a3-e86c-44ad-b0aa-d82afa5db271","src_id":"n11981065845@1"},"geometry":{"type":"Point","coordinates":[81.387310622699943,28.793092707220584]}},
{"type":"Feature","properties":{"settlement_id":"KAR-SET-018","display_name":"Chhinchu","name":"छिन्चु","name_en":"Chhinchu","adm3_name":"Bheriganga","adm3_pcode":"NP0659302","local_level_type":"urban municipality","adm2_name":"Surkhet","class":"village","selection_method":"named_locality_max_buildings","label_distance_m":null,"buildings_within_radius":745,"candidates_in_palika":120,"id":"1163624d-cf6c-4127-b9e4-7b81dd2a1a98","src_id":"n3385326234@4"},"geometry":{"type":"Point","coordinates":[81.7187658,28.4591963]}},
{"type":"Feature","properties":{"settlement_id":"KAR-SET-019","display_name":"Birendra Chok","name":"Birendra Chok","name_en":null,"adm3_name":"Birendranagar","adm3_pcode":"NP0659303","local_level_type":"urban municipality","adm2_name":"Surkhet","class":"hamlet","selection_method":"named_locality_max_buildings","label_distance_m":null,"buildings_within_radius":1582,"candidates_in_palika":125,"id":"e15ed016-00ea-451d-a424-91153c139840","src_id":"n2202987370@4"},"geometry":{"type":"Point","coordinates":[81.6149535,28.5967919]}},
{"type":"Feature","properties":{"settlement_id":"KAR-SET-020","display_name":"Mathillo Ratmate","name":"Mathillo Ratmate","name_en":null,"adm3_name":"Lekabeshi","adm3_pcode":"NP0659304","local_level_type":"urban municipality","adm2_name":"Surkhet","class":"hamlet","selection_method":"named_locality_max_buildings","label_distance_m":null,"buildings_within_radius":606,"candidates_in_palika":216,"id":"f8e16d76-0833-4b23-b2c4-90d9042611a9","src_id":"n9694110456@1"},"geometry":{"type":"Point","coordinates":[81.8048172,28.4682999]}},
{"type":"Feature","properties":{"settlement_id":"KAR-SET-021","display_name":"Mehelkuna Bajar","name":"मेहेलकुना बजार","name_en":"Mehelkuna Bajar","adm3_name":"Gurbhakot","adm3_pcode":"NP0659305","local_level_type":"urban municipality","adm2_name":"Surkhet","class":"hamlet","selection_method":"named_locality_max_buildings","label_distance_m":null,"buildings_within_radius":715,"candidates_in_palika":282,"id":"6d718c70-5935-4649-831b-9eebf97685b5","src_id":"n9689911017@2"},"geometry":{"type":"Point","coordinates":[81.85452140000001,28.4382403]}},
{"type":"Feature","properties":{"settlement_id":"KAR-SET-022","display_name":"Motisera Bajar","name":"Motisera Bajar","name_en":null,"adm3_name":"Chaukune","adm3_pcode":"NP0659401","local_level_type":"rural municipality","adm2_name":"Surkhet","class":"hamlet","selection_method":"named_locality_max_buildings","label_distance_m":null,"buildings_within_radius":406,"candidates_in_palika":151,"id":"f1526848-f99d-4207-9758-69c517effd81","src_id":"n11980173295@1"},"geometry":{"type":"Point","coordinates":[81.3220167,28.8379616]}},
{"type":"Feature","properties":{"settlement_id":"KAR-SET-023","display_name":"Baddichaur","name":"Baddichaur","name_en":null,"adm3_name":"Barahatal","adm3_pcode":"NP0659402","local_level_type":"rural municipality","adm2_name":"Surkhet","class":"village","selection_method":"named_locality_max_buildings","label_distance_m":null,"buildings_within_radius":541,"candidates_in_palika":41,"id":"feab67b7-713c-46dc-9047-56a5454aa822","src_id":"n10779563208@1"},"geometry":{"type":"Point","coordinates":[81.5051613,28.7147397]}},
{"type":"Feature","properties":{"settlement_id":"KAR-SET-024","display_name":"Chingad","name":"Chingad","name_en":null,"adm3_name":"Chingad","adm3_pcode":"NP0659403","local_level_type":"rural municipality","adm2_name":"Surkhet","class":null,"selection_method":"named_locality_max_buildings","label_distance_m":null,"buildings_within_radius":200,"candidates_in_palika":24,"id":"531691a0-1783-45de-8bfe-047862e69409","src_id":"r10488777@5"},"geometry":{"type":"Point","coordinates":[81.838617717636794,28.62785765]}},
{"type":"Feature","properties":{"settlement_id":"KAR-SET-025","display_name":"area near Devsthal","name":"Devsthal","name_en":null,"adm3_name":"Simta","adm3_pcode":"NP0659404","local_level_type":"rural municipality","adm2_name":"Surkhet","class":"village","selection_method":"densest_building_cluster_nearest_name","label_distance_m":1030.0,"buildings_within_radius":450,"candidates_in_palika":1,"id":"5e859640-3b88-4e19-a838-89a26752d030","src_id":"n3385201355@1"},"geometry":{"type":"Point","coordinates":[82.021078850495357,28.520891945401225]}},
{"type":"Feature","properties":{"settlement_id":"KAR-SET-026","display_name":"area near Rajikot","name":"Rajikot","name_en":"Rajikot","adm3_name":"Chhedagad","adm3_pcode":"NP0660301","local_level_type":"urban municipality","adm2_name":"Jajarkot","class":"hamlet","selection_method":"densest_building_cluster_nearest_name","label_distance_m":2009.0,"buildings_within_radius":425,"candidates_in_palika":20,"id":"f4070af6-7c08-49f0-b749-02fec0f59755","src_id":"n11331427824@1"},"geometry":{"type":"Point","coordinates":[82.048368486935672,28.755485962493907]}},
{"type":"Feature","properties":{"settlement_id":"KAR-SET-027","display_name":"Jajarkot","name":"जाजरकोट","name_en":"Jajarkot","adm3_name":"Bheri Malika","adm3_pcode":"NP0660302","local_level_type":"urban municipality","adm2_name":"Jajarkot","class":"town","selection_method":"named_locality_max_buildings","label_distance_m":null,"buildings_within_radius":629,"candidates_in_palika":4,"id":"d53d50a8-acca-4455-8df6-b877b9956e87","src_id":"n3385201356@7"},"geometry":{"type":"Point","coordinates":[82.198257,28.698212]}},
{"type":"Feature","properties":{"settlement_id":"KAR-SET-028","display_name":"Dalli","name":"दल्ली","name_en":"Dalli","adm3_name":"Nalgad","adm3_pcode":"NP0660303","local_level_type":"urban municipality","adm2_name":"Jajarkot","class":"village","selection_method":"named_locality_max_buildings","label_distance_m":null,"buildings_within_radius":533,"candidates_in_palika":32,"id":"0a7a7a1b-5f31-4e67-a07f-0000a4b6b594","src_id":"n13318774774@1"},"geometry":{"type":"Point","coordinates":[82.3014982,28.791230099999986]}},
{"type":"Feature","properties":{"settlement_id":"KAR-SET-029","display_name":"Karki Gaau","name":"Karki Gaau","name_en":"Karki Gaau","adm3_name":"Junichande","adm3_pcode":"NP0660401","local_level_type":"rural municipality","adm2_name":"Jajarkot","class":"hamlet","selection_method":"named_locality_max_buildings","label_distance_m":null,"buildings_within_radius":155,"candidates_in_palika":5,"id":"041f0b7f-d73d-4bfb-b2c8-ec6f7e95c039","src_id":"n11104637694@1"},"geometry":{"type":"Point","coordinates":[81.9362926,28.8029489]}},
{"type":"Feature","properties":{"settlement_id":"KAR-SET-030","display_name":"Damdala","name":"Damdala","name_en":"Damdala","adm3_name":"Kuse","adm3_pcode":"NP0660402","local_level_type":"rural municipality","adm2_name":"Jajarkot","class":"hamlet","selection_method":"named_locality_max_buildings","label_distance_m":null,"buildings_within_radius":207,"candidates_in_palika":118,"id":"3c3fdc3c-3505-4c16-b843-d2b04604cdfc","src_id":"n11331441507@1"},"geometry":{"type":"Point","coordinates":[82.1663869,28.7986476]}},
{"type":"Feature","properties":{"settlement_id":"KAR-SET-031","display_name":"सिर्पचौर बस्ती","name":"सिर्पचौर बस्ती","name_en":null,"adm3_name":"Barekot","adm3_pcode":"NP0660403","local_level_type":"rural municipality","adm2_name":"Jajarkot","class":"hamlet","selection_method":"named_locality_max_buildings","label_distance_m":null,"buildings_within_radius":363,"candidates_in_palika":41,"id":"c6dedcbf-3d31-47a8-991c-4c9af1d9dc9b","src_id":"n13321516564@1"},"geometry":{"type":"Point","coordinates":[82.2514903,28.9205064]}},
{"type":"Feature","properties":{"settlement_id":"KAR-SET-032","display_name":"area near Shiwalaya","name":"Shiwalaya","name_en":null,"adm3_name":"Shivalaya","adm3_pcode":"NP0660404","local_level_type":"rural municipality","adm2_name":"Jajarkot","class":null,"selection_method":"densest_building_cluster_nearest_name","label_distance_m":9098.0,"buildings_within_radius":249,"candidates_in_palika":1,"id":"fa1c660b-1ac8-4ebe-bf1c-fd1ac9b531dd","src_id":"r10490850@4"},"geometry":{"type":"Point","coordinates":[82.015339135901868,28.659593520254848]}},
{"type":"Feature","properties":{"settlement_id":"KAR-SET-033","display_name":"Rakam","name":"Rakam","name_en":null,"adm3_name":"Aathbis","adm3_pcode":"NP0661301","local_level_type":"urban municipality","adm2_name":"Dailekh","class":"town","selection_method":"named_locality_max_buildings","label_distance_m":null,"buildings_within_radius":439,"candidates_in_palika":9,"id":"356b90f3-d80b-4259-a0a3-537913b7bf48","src_id":"n11113728308@1"},"geometry":{"type":"Point","coordinates":[81.4566721,29.0542424]}},
{"type":"Feature","properties":{"settlement_id":"KAR-SET-034","display_name":"Sallako Rukhgaun","name":"Sallako Rukhgaun","name_en":null,"adm3_name":"Chamunda Bindrasaini","adm3_pcode":"NP0661302","local_level_type":"urban municipality","adm2_name":"Dailekh","class":"hamlet","selection_method":"named_locality_max_buildings","label_distance_m":null,"buildings_within_radius":435,"candidates_in_palika":107,"id":"9c1e755b-96d4-41ba-94b6-2bb563320708","src_id":"n9689919832@1"},"geometry":{"type":"Point","coordinates":[81.5455113,28.9413269]}},
{"type":"Feature","properties":{"settlement_id":"KAR-SET-035","display_name":"Saunbada","name":"Saunbada","name_en":null,"adm3_name":"Dullu","adm3_pcode":"NP0661303","local_level_type":"urban municipality","adm2_name":"Dailekh","class":"hamlet","selection_method":"named_locality_max_buildings","label_distance_m":null,"buildings_within_radius":385,"candidates_in_palika":98,"id":"7c541929-e22b-4067-84f7-10edf5de4d46","src_id":"n9687196203@1"},"geometry":{"type":"Point","coordinates":[81.6091935,28.8672063]}},
{"type":"Feature","properties":{"settlement_id":"KAR-SET-036","display_name":"Bhurti","name":"Bhurti","name_en":null,"adm3_name":"Narayan","adm3_pcode":"NP0661304","local_level_type":"urban municipality","adm2_name":"Dailekh","class":"hamlet","selection_method":"named_locality_max_buildings","label_distance_m":null,"buildings_within_radius":536,"candidates_in_palika":133,"id":"33617670-bc73-4f5a-901e-7d3d6b06dca8","src_id":"n9692815728@2"},"geometry":{"type":"Point","coordinates":[81.7175157,28.8550532]}},
{"type":"Feature","properties":{"settlement_id":"KAR-SET-037","display_name":"area near Thantikandh","name":"Thantikandh","name_en":null,"adm3_name":"Thantikandh","adm3_pcode":"NP0661401","local_level_type":"rural municipality","adm2_name":"Dailekh","class":null,"selection_method":"densest_building_cluster_nearest_name","label_distance_m":2473.0,"buildings_within_radius":347,"candidates_in_palika":1,"id":"8067c03f-23f0-4ae0-9f45-ec47ea514f56","src_id":"r11020318@6"},"geometry":{"type":"Point","coordinates":[81.515852707799226,28.983824934016607]}},
{"type":"Feature","properties":{"settlement_id":"KAR-SET-038","display_name":"area near Bhairabi","name":"Bhairabi","name_en":null,"adm3_name":"Bhairabi","adm3_pcode":"NP0661402","local_level_type":"rural municipality","adm2_name":"Dailekh","class":null,"selection_method":"densest_building_cluster_nearest_name","label_distance_m":1607.0,"buildings_within_radius":378,"candidates_in_palika":1,"id":"632f328d-24ee-46d3-9681-20992b41364f","src_id":"r11020316@7"},"geometry":{"type":"Point","coordinates":[81.627122960847089,28.931806368249951]}},
{"type":"Feature","properties":{"settlement_id":"KAR-SET-039","display_name":"area near Syalakatiya","name":"Syalakatiya","name_en":null,"adm3_name":"Mahabu","adm3_pcode":"NP0661403","local_level_type":"rural municipality","adm2_name":"Dailekh","class":"hamlet","selection_method":"densest_building_cluster_nearest_name","label_distance_m":1835.0,"buildings_within_radius":312,"candidates_in_palika":1,"id":"bbdc6e5b-23e6-4129-a867-398a2748ea0d","src_id":"n9692815743@2"},"geometry":{"type":"Point","coordinates":[81.697670322630202,28.884008255651501]}},
{"type":"Feature","properties":{"settlement_id":"KAR-SET-040","display_name":"area near Naumule","name":"Naumule","name_en":null,"adm3_name":"Naumule","adm3_pcode":"NP0661404","local_level_type":"rural municipality","adm2_name":"Dailekh","class":null,"selection_method":"densest_building_cluster_nearest_name","label_distance_m":3715.0,"buildings_within_radius":523,"candidates_in_palika":1,"id":"1862f39e-5bea-465a-9d1a-6005486ecba5","src_id":"r11020314@6"},"geometry":{"type":"Point","coordinates":[81.809773496832094,28.908456811238846]}},
{"type":"Feature","properties":{"settlement_id":"KAR-SET-041","display_name":"serabada","name":"serabada","name_en":null,"adm3_name":"Gurans","adm3_pcode":"NP0661405","local_level_type":"rural municipality","adm2_name":"Dailekh","class":"hamlet","selection_method":"named_locality_max_buildings","label_distance_m":null,"buildings_within_radius":272,"candidates_in_palika":185,"id":"19f9c562-5d1d-4673-bed3-e4bb60db833b","src_id":"n9687189656@1"},"geometry":{"type":"Point","coordinates":[81.6190443,28.759722]}},
{"type":"Feature","properties":{"settlement_id":"KAR-SET-042","display_name":"Belghari","name":"Belghari","name_en":null,"adm3_name":"Dungeshwor","adm3_pcode":"NP0661406","local_level_type":"rural municipality","adm2_name":"Dailekh","class":"hamlet","selection_method":"densest_building_cluster_nearest_name","label_distance_m":583.0,"buildings_within_radius":391,"candidates_in_palika":2,"id":"d79fa4c1-1ddb-47dc-af33-387b2bf3f34a","src_id":"n9692813683@2"},"geometry":{"type":"Point","coordinates":[81.690480227187393,28.801124158611437]}},
{"type":"Feature","properties":{"settlement_id":"KAR-SET-043","display_name":"Bestada","name":"Bestada","name_en":"Bestada","adm3_name":"Bhagawatimai","adm3_pcode":"NP0661407","local_level_type":"rural municipality","adm2_name":"Dailekh","class":"town","selection_method":"named_locality_max_buildings","label_distance_m":null,"buildings_within_radius":344,"candidates_in_palika":144,"id":"6666a67d-3708-4784-a8d9-e28a425cacd8","src_id":"n10062755155@4"},"geometry":{"type":"Point","coordinates":[81.8255404,28.7873664]}},
{"type":"Feature","properties":{"settlement_id":"KAR-SET-044","display_name":"Ranga","name":"Ranga","name_en":null,"adm3_name":"Tripurasundari","adm3_pcode":"NP0662301","local_level_type":"urban municipality","adm2_name":"Dolpa","class":"village","selection_method":"named_locality_max_buildings","label_distance_m":null,"buildings_within_radius":373,"candidates_in_palika":40,"id":"1c2f4a46-a6fe-45da-b282-05ee5be31ee1","src_id":"n8261295645@1"},"geometry":{"type":"Point","coordinates":[82.7627758,29.0090411]}},
{"type":"Feature","properties":{"settlement_id":"KAR-SET-045","display_name":"Thuibheri","name":"Thuibheri","name_en":null,"adm3_name":"Thulibheri","adm3_pcode":"NP0662302","local_level_type":"urban municipality","adm2_name":"Dolpa","class":"town","selection_method":"named_locality_max_buildings","label_distance_m":null,"buildings_within_radius":592,"candidates_in_palika":17,"id":"d03f26b3-2c0e-43a0-8075-8ba87feb6d7d","src_id":"n9220894174@1"},"geometry":{"type":"Point","coordinates":[82.8934914,28.9519777]}},
{"type":"Feature","properties":{"settlement_id":"KAR-SET-046","display_name":"Khoma","name":"Khoma","name_en":null,"adm3_name":"Shey Phoksundo","adm3_pcode":"NP0662401","local_level_type":"rural municipality","adm2_name":"Dolpa","class":"hamlet","selection_method":"named_locality_max_buildings","label_distance_m":null,"buildings_within_radius":138,"candidates_in_palika":23,"id":"e8ddad0d-3d05-4c6c-9bed-6734c90bbc6c","src_id":"n5290153116@1"},"geometry":{"type":"Point","coordinates":[83.1374954,29.4304677]}},
{"type":"Feature","properties":{"settlement_id":"KAR-SET-047","display_name":"Gairi Gaun","name":"Gairi Gaun","name_en":null,"adm3_name":"Jagadulla","adm3_pcode":"NP0662402","local_level_type":"rural municipality","adm2_name":"Dolpa","class":"village","selection_method":"named_locality_max_buildings","label_distance_m":null,"buildings_within_radius":326,"candidates_in_palika":9,"id":"160a8b97-b77f-40fc-b51f-fc3dde6552bd","src_id":"n8306207198@1"},"geometry":{"type":"Point","coordinates":[82.565791,29.1280453]}},
{"type":"Feature","properties":{"settlement_id":"KAR-SET-048","display_name":"Dho Tarap","name":"Dho Tarap","name_en":null,"adm3_name":"Dolpo Buddha","adm3_pcode":"NP0662403","local_level_type":"rural municipality","adm2_name":"Dolpa","class":"village","selection_method":"named_locality_max_buildings","label_distance_m":null,"buildings_within_radius":208,"candidates_in_palika":16,"id":"f475b836-47e4-44f0-b95b-de1933237bf9","src_id":"n2494372092@6"},"geometry":{"type":"Point","coordinates":[83.1867273,29.1284658]}},
{"type":"Feature","properties":{"settlement_id":"KAR-SET-049","display_name":"Namuna Tole kalika","name":"Namuna Tole kalika","name_en":null,"adm3_name":"Mudkechula","adm3_pcode":"NP0662404","local_level_type":"rural municipality","adm2_name":"Dolpa","class":"hamlet","selection_method":"named_locality_max_buildings","label_distance_m":null,"buildings_within_radius":298,"candidates_in_palika":19,"id":"0237bd44-e234-4b5a-996d-8b228e915483","src_id":"n8294369280@1"},"geometry":{"type":"Point","coordinates":[82.5503187,29.0195013]}},
{"type":"Feature","properties":{"settlement_id":"KAR-SET-050","display_name":"Kola","name":"Kola","name_en":null,"adm3_name":"Kaike","adm3_pcode":"NP0662405","local_level_type":"rural municipality","adm2_name":"Dolpa","class":"hamlet","selection_method":"named_locality_max_buildings","label_distance_m":null,"buildings_within_radius":98,"candidates_in_palika":20,"id":"8c082ec9-a833-47e8-a132-6e7858a1d981","src_id":"n3584439309@3"},"geometry":{"type":"Point","coordinates":[83.0293098,28.8781605]}},
{"type":"Feature","properties":{"settlement_id":"KAR-SET-051","display_name":"Chharka Bhot","name":"Chharka Bhot","name_en":null,"adm3_name":"Chharka Tangsong","adm3_pcode":"NP0662406","local_level_type":"rural municipality","adm2_name":"Dolpa","class":"village","selection_method":"named_locality_max_buildings","label_distance_m":null,"buildings_within_radius":128,"candidates_in_palika":16,"id":"c374411f-696b-4f5d-b8dd-332e56aa1c6b","src_id":"n3633999023@6"},"geometry":{"type":"Point","coordinates":[83.4153999,29.0898869]}},
{"type":"Feature","properties":{"settlement_id":"KAR-SET-052","display_name":"Chandannath","name":"चन्दननाथ","name_en":"Chandannath","adm3_name":"Chandannath","adm3_pcode":"NP0663301","local_level_type":"urban municipality","adm2_name":"Jumla","class":"town","selection_method":"named_locality_max_buildings","label_distance_m":null,"buildings_within_radius":1181,"candidates_in_palika":14,"id":"4a73e9ff-c339-4087-8db9-e43a48b1e278","src_id":"n8157956930@10"},"geometry":{"type":"Point","coordinates":[82.1832699,29.2749492]}},
{"type":"Feature","properties":{"settlement_id":"KAR-SET-053","display_name":"sumal gaun","name":"sumal gaun","name_en":null,"adm3_name":"Kanaka Sundari","adm3_pcode":"NP0663401","local_level_type":"rural municipality","adm2_name":"Jumla","class":"village","selection_method":"named_locality_max_buildings","label_distance_m":null,"buildings_within_radius":171,"candidates_in_palika":16,"id":"db233830-1e7e-4a0e-a66a-123b1982d85d","src_id":"n11947018556@1"},"geometry":{"type":"Point","coordinates":[81.9900181,29.3904407]}},
{"type":"Feature","properties":{"settlement_id":"KAR-SET-054","display_name":"Gora","name":"Gora","name_en":null,"adm3_name":"Sinja","adm3_pcode":"NP0663402","local_level_type":"rural municipality","adm2_name":"Jumla","class":"village","selection_method":"named_locality_max_buildings","label_distance_m":null,"buildings_within_radius":151,"candidates_in_palika":7,"id":"9a2ed945-52fc-4b8a-b894-946764ab4053","src_id":"n10739648242@1"},"geometry":{"type":"Point","coordinates":[82.006535600000021,29.3163472]}},
{"type":"Feature","properties":{"settlement_id":"KAR-SET-055","display_name":"Luma","name":"Luma","name_en":null,"adm3_name":"Patarasi","adm3_pcode":"NP0663403","local_level_type":"rural municipality","adm2_name":"Jumla","class":"village","selection_method":"named_locality_max_buildings","label_distance_m":null,"buildings_within_radius":312,"candidates_in_palika":26,"id":"7bf3be7d-342c-448e-a67a-fcfe2271de42","src_id":"n8169459384@1"},"geometry":{"type":"Point","coordinates":[82.302904500000011,29.3088543]}},
{"type":"Feature","properties":{"settlement_id":"KAR-SET-056","display_name":"area near Baghbazar","name":"Baghbazar","name_en":null,"adm3_name":"Hima","adm3_pcode":"NP0663404","local_level_type":"rural municipality","adm2_name":"Jumla","class":"hamlet","selection_method":"densest_building_cluster_nearest_name","label_distance_m":1756.0,"buildings_within_radius":337,"candidates_in_palika":2,"id":"d9a39f83-5395-488c-a740-3d2fe2da1308","src_id":"w623780696@2"},"geometry":{"type":"Point","coordinates":[81.897598870457301,29.21846687511152]}},
{"type":"Feature","properties":{"settlement_id":"KAR-SET-057","display_name":"Rara Gaun","name":"Rara Gaun","name_en":null,"adm3_name":"Tila","adm3_pcode":"NP0663405","local_level_type":"rural municipality","adm2_name":"Jumla","class":"village","selection_method":"named_locality_max_buildings","label_distance_m":null,"buildings_within_radius":207,"candidates_in_palika":15,"id":"e056a8b6-fd6b-4039-bd81-8fc22fe9082e","src_id":"n8158062178@1"},"geometry":{"type":"Point","coordinates":[81.9438374,29.226523]}},
{"type":"Feature","properties":{"settlement_id":"KAR-SET-058","display_name":"Litākot","name":"Litākot","name_en":null,"adm3_name":"Tatopani","adm3_pcode":"NP0663406","local_level_type":"rural municipality","adm2_name":"Jumla","class":"village","selection_method":"named_locality_max_buildings","label_distance_m":null,"buildings_within_radius":335,"candidates_in_palika":15,"id":"c619e38a-8df4-45fc-8486-3aafac6de747","src_id":"n2985974470@3"},"geometry":{"type":"Point","coordinates":[82.0476875,29.2317749]}},
{"type":"Feature","properties":{"settlement_id":"KAR-SET-059","display_name":"Garjyankot","name":"Garjyankot","name_en":null,"adm3_name":"Guthichaur","adm3_pcode":"NP0663407","local_level_type":"rural municipality","adm2_name":"Jumla","class":"village","selection_method":"named_locality_max_buildings","label_distance_m":null,"buildings_within_radius":404,"candidates_in_palika":18,"id":"fd78dc22-d035-422b-b7aa-daaa8f69df1b","src_id":"n8157944391@1"},"geometry":{"type":"Point","coordinates":[82.2564492,29.253514]}},
{"type":"Feature","properties":{"settlement_id":"KAR-SET-060","display_name":"Gorkhali","name":"Gorkhali","name_en":null,"adm3_name":"Raskot","adm3_pcode":"NP0664301","local_level_type":"urban municipality","adm2_name":"Kalikot","class":"village","selection_method":"named_locality_max_buildings","label_distance_m":null,"buildings_within_radius":439,"candidates_in_palika":26,"id":"4815f458-a5ff-4c3c-b5dc-2158b4768e3c","src_id":"n8308303657@2"},"geometry":{"type":"Point","coordinates":[81.6333744,29.2384069]}},
{"type":"Feature","properties":{"settlement_id":"KAR-SET-061","display_name":"Manma","name":"Manma","name_en":"Manma","adm3_name":"Khandachakra","adm3_pcode":"NP0664302","local_level_type":"urban municipality","adm2_name":"Kalikot","class":"town","selection_method":"named_locality_max_buildings","label_distance_m":null,"buildings_within_radius":484,"candidates_in_palika":17,"id":"8c60590e-5db7-4c76-8024-b03f7ef8a18f","src_id":"n8309132733@7"},"geometry":{"type":"Point","coordinates":[81.612609,29.1503646]}},
{"type":"Feature","properties":{"settlement_id":"KAR-SET-062","display_name":"Chhapre","name":"Chhapre","name_en":null,"adm3_name":"Tilagupha","adm3_pcode":"NP0664303","local_level_type":"urban municipality","adm2_name":"Kalikot","class":"village","selection_method":"named_locality_max_buildings","label_distance_m":null,"buildings_within_radius":302,"candidates_in_palika":11,"id":"6cfc8ff9-85bc-4b05-9d7a-48cdc5b2b881","src_id":"n8310811297@2"},"geometry":{"type":"Point","coordinates":[81.784488,29.15447180000001]}},
{"type":"Feature","properties":{"settlement_id":"KAR-SET-063","display_name":"Shreekot","name":"Shreekot","name_en":null,"adm3_name":"Naraharinath","adm3_pcode":"NP0664401","local_level_type":"rural municipality","adm2_name":"Kalikot","class":"village","selection_method":"named_locality_max_buildings","label_distance_m":null,"buildings_within_radius":453,"candidates_in_palika":23,"id":"a94e5606-8ad3-46df-abe2-cd7283f1b169","src_id":"n8314394190@1"},"geometry":{"type":"Point","coordinates":[81.5477264,29.1603929]}},
{"type":"Feature","properties":{"settlement_id":"KAR-SET-064","display_name":"Mehalmudi","name":"Mehalmudi","name_en":null,"adm3_name":"Sanni Tribeni","adm3_pcode":"NP0664402","local_level_type":"rural municipality","adm2_name":"Kalikot","class":"village","selection_method":"named_locality_max_buildings","label_distance_m":null,"buildings_within_radius":307,"candidates_in_palika":11,"id":"0abfa368-f79f-4047-bbc7-dd1364fd5eb4","src_id":"n8373979618@1"},"geometry":{"type":"Point","coordinates":[81.6047984,29.2433124]}},
{"type":"Feature","properties":{"settlement_id":"KAR-SET-065","display_name":"Bajhkot","name":"Bajhkot","name_en":null,"adm3_name":"Pachal Jharana","adm3_pcode":"NP0664403","local_level_type":"rural municipality","adm2_name":"Kalikot","class":"hamlet","selection_method":"named_locality_max_buildings","label_distance_m":null,"buildings_within_radius":244,"candidates_in_palika":25,"id":"cd4628fc-617d-47d4-898d-732819505ad2","src_id":"n8320369260@1"},"geometry":{"type":"Point","coordinates":[81.764894100000021,29.2796273]}},
{"type":"Feature","properties":{"settlement_id":"KAR-SET-066","display_name":"Larpha","name":"Larpha","name_en":null,"adm3_name":"Palata","adm3_pcode":"NP0664404","local_level_type":"rural municipality","adm2_name":"Kalikot","class":"village","selection_method":"named_locality_max_buildings","label_distance_m":null,"buildings_within_radius":216,"candidates_in_palika":27,"id":"c80aba5b-aee3-4f71-87fe-9c77daf41108","src_id":"n10814469117@1"},"geometry":{"type":"Point","coordinates":[81.775295700000015,29.3442243]}},
{"type":"Feature","properties":{"settlement_id":"KAR-SET-067","display_name":"Balachaur","name":"Balachaur","name_en":null,"adm3_name":"Shuva Kalika","adm3_pcode":"NP0664405","local_level_type":"rural municipality","adm2_name":"Kalikot","class":"village","selection_method":"named_locality_max_buildings","label_distance_m":null,"buildings_within_radius":405,"candidates_in_palika":18,"id":"e004e751-9f97-4913-87f8-dd275118da9b","src_id":"n8340636319@1"},"geometry":{"type":"Point","coordinates":[81.5891317,29.100066]}},
{"type":"Feature","properties":{"settlement_id":"KAR-SET-068","display_name":"Dillikot","name":"Dillikot","name_en":null,"adm3_name":"Mahawai","adm3_pcode":"NP0664406","local_level_type":"rural municipality","adm2_name":"Kalikot","class":"village","selection_method":"named_locality_max_buildings","label_distance_m":null,"buildings_within_radius":368,"candidates_in_palika":7,"id":"87404641-8fc3-4673-8a9c-cfc7acf94fb5","src_id":"n3492562141@2"},"geometry":{"type":"Point","coordinates":[81.7525218,29.0639994]}},
{"type":"Feature","properties":{"settlement_id":"KAR-SET-069","display_name":"Thini","name":"Thini","name_en":null,"adm3_name":"Chhayanath Rara","adm3_pcode":"NP0665301","local_level_type":"urban municipality","adm2_name":"Mugu","class":"village","selection_method":"named_locality_max_buildings","label_distance_m":null,"buildings_within_radius":608,"candidates_in_palika":53,"id":"72bda777-5cca-4afa-9111-1bc61b5288e5","src_id":"n7942467952@1"},"geometry":{"type":"Point","coordinates":[82.1564969,29.5510651]}},
{"type":"Feature","properties":{"settlement_id":"KAR-SET-070","display_name":"Ratapaani","name":"Ratapaani","name_en":null,"adm3_name":"Khatyad","adm3_pcode":"NP0665401","local_level_type":"rural municipality","adm2_name":"Mugu","class":"village","selection_method":"named_locality_max_buildings","label_distance_m":null,"buildings_within_radius":302,"candidates_in_palika":68,"id":"1c68ea7d-dc45-43f0-a6b4-42299c1077ce","src_id":"n7942316761@1"},"geometry":{"type":"Point","coordinates":[81.8327733,29.5163609]}},
{"type":"Feature","properties":{"settlement_id":"KAR-SET-071","display_name":"Dalit bada","name":"Dalit bada","name_en":null,"adm3_name":"Soru","adm3_pcode":"NP0665402","local_level_type":"rural municipality","adm2_name":"Mugu","class":"village","selection_method":"named_locality_max_buildings","label_distance_m":null,"buildings_within_radius":196,"candidates_in_palika":52,"id":"ec79596d-f7e2-46be-acb2-10e045ec5732","src_id":"n7944282874@1"},"geometry":{"type":"Point","coordinates":[81.8826617,29.6259505]}},
{"type":"Feature","properties":{"settlement_id":"KAR-SET-072","display_name":"Maha Gaau","name":"Maha Gaau","name_en":null,"adm3_name":"Mugumakarmarog","adm3_pcode":"NP0665403","local_level_type":"rural municipality","adm2_name":"Mugu","class":"village","selection_method":"named_locality_max_buildings","label_distance_m":null,"buildings_within_radius":195,"candidates_in_palika":10,"id":"9db33285-8372-431e-a825-a694fc551ebf","src_id":"n7244771015@1"},"geometry":{"type":"Point","coordinates":[82.3083917,29.5982167]}},
{"type":"Feature","properties":{"settlement_id":"KAR-SET-073","display_name":"Syakarpu","name":"Syakarpu","name_en":null,"adm3_name":"Namkha","adm3_pcode":"NP0666401","local_level_type":"rural municipality","adm2_name":"Humla","class":"village","selection_method":"named_locality_max_buildings","label_distance_m":null,"buildings_within_radius":156,"candidates_in_palika":32,"id":"11fc2c17-2e72-46b7-8abd-f935c4419077","src_id":"n2190894824@3"},"geometry":{"type":"Point","coordinates":[81.6193987,30.060704]}},
{"type":"Feature","properties":{"settlement_id":"KAR-SET-074","display_name":"Simikot","name":"सिमिकोट","name_en":"Simikot","adm3_name":"Simkot","adm3_pcode":"NP0666402","local_level_type":"rural municipality","adm2_name":"Humla","class":"town","selection_method":"named_locality_max_buildings","label_distance_m":null,"buildings_within_radius":793,"candidates_in_palika":37,"id":"23eb1476-05a5-4f70-872e-d9ccecad866c","src_id":"n3385201652@12"},"geometry":{"type":"Point","coordinates":[81.8201602,29.9728637]}},
{"type":"Feature","properties":{"settlement_id":"KAR-SET-075","display_name":"Mathlo Thali","name":"Mathlo Thali","name_en":null,"adm3_name":"Kharpunath","adm3_pcode":"NP0666403","local_level_type":"rural municipality","adm2_name":"Humla","class":"hamlet","selection_method":"named_locality_max_buildings","label_distance_m":null,"buildings_within_radius":175,"candidates_in_palika":36,"id":"a7f5abb9-7e62-48aa-802b-b938b9c5ac59","src_id":"n10814104098@1"},"geometry":{"type":"Point","coordinates":[81.8745346,29.8495942]}},
{"type":"Feature","properties":{"settlement_id":"KAR-SET-076","display_name":"Bhitagaun Jaira","name":"Bhitagaun Jaira","name_en":null,"adm3_name":"Sarkegad","adm3_pcode":"NP0666404","local_level_type":"rural municipality","adm2_name":"Humla","class":"village","selection_method":"named_locality_max_buildings","label_distance_m":null,"buildings_within_radius":246,"candidates_in_palika":47,"id":"5ca3e177-b8db-4c6c-b2ba-16e7c5349e3f","src_id":"w432385494@4"},"geometry":{"type":"Point","coordinates":[81.983645512784989,29.7202721]}},
{"type":"Feature","properties":{"settlement_id":"KAR-SET-077","display_name":"Byaphu","name":"Byaphu","name_en":null,"adm3_name":"Chankheli","adm3_pcode":"NP0666405","local_level_type":"rural municipality","adm2_name":"Humla","class":"hamlet","selection_method":"named_locality_max_buildings","label_distance_m":null,"buildings_within_radius":225,"candidates_in_palika":26,"id":"236794b5-dfe0-48a1-b20e-d7800a2e661b","src_id":"n7027681956@2"},"geometry":{"type":"Point","coordinates":[82.0776021,29.732567]}},
{"type":"Feature","properties":{"settlement_id":"KAR-SET-078","display_name":"Kolibada","name":"Kolibada","name_en":null,"adm3_name":"Tanjakot","adm3_pcode":"NP0666406","local_level_type":"rural municipality","adm2_name":"Humla","class":"hamlet","selection_method":"named_locality_max_buildings","label_distance_m":null,"buildings_within_radius":192,"candidates_in_palika":36,"id":"df444228-c87c-4116-b95a-bbaf1a4c0385","src_id":"n10725172945@1"},"geometry":{"type":"Point","coordinates":[81.752051,29.6378495]}},
{"type":"Feature","properties":{"settlement_id":"KAR-SET-079","display_name":"Shreenagar","name":"Shreenagar","name_en":null,"adm3_name":"Adanchuli","adm3_pcode":"NP0666407","local_level_type":"rural municipality","adm2_name":"Humla","class":"village","selection_method":"named_locality_max_buildings","label_distance_m":null,"buildings_within_radius":302,"candidates_in_palika":36,"id":"0c567dc4-a013-41cd-ba85-049c4cbc498a","src_id":"n5985153818@4"},"geometry":{"type":"Point","coordinates":[81.8636216,29.6581312]}}
]
}
